NORAD_CAT_ID,OBJECT_NAME,OBJECT_TYPE,EPOCH,MEAN_MOTION,ECCENTRICITY,INCLINATION,RA_OF_ASC_NODE,ARG_OF_PERICENTER,MEAN_ANOMALY,BSTAR,MEAN_MOTION_DOT,MEAN_MOTION_DDOT,TLE_LINE0,TLE_LINE1,TLE_LINE2,SEMIMAJOR_AXIS,PERIOD,APOGEE,PERIGEE,DECAYED
54781.0,STARLINK-5443,PAYLOAD,2024-05-18 07:20:18,15.08842481,0.0001453,53.2153,113.7161,101.6044,258.5111,0.00031905,4.794e-05,0.0,0 STARLINK-5443,1 54781U 22175Z   24139.30577178  .00004794  00000-0  31905-3 0  9994,2 54781  53.2153 113.7161 0001453 101.6044 258.5111 15.08842481 80434,6917.873,95.437,540.743,538.733,0.0
54781.0,STARLINK-5443,PAYLOAD,2024-05-18 15:17:14,15.08855307,0.0001434,53.2152,112.2272,86.5017,273.6139,0.0014006,0.00022082,0.0,0 STARLINK-5443,1 54781U 22175Z   24139.63697193  .00022082  00000-0  14006-2 0  9992,2 54781  53.2152 112.2272 0001434  86.5017 273.6139 15.08855307 78324,6917.834,95.437,540.691,538.707,0.0
54781.0,STARLINK-5443,PAYLOAD,2024-05-19 04:00:20,15.08825691,0.0001343,53.2138,109.8502,100.877,259.2374,0.00030595,4.583e-05,0.0,0 STARLINK-5443,1 54781U 22175Z   24140.16689965  .00004583  00000-0  30595-3 0  9998,2 54781  53.2138 109.8502 0001343 100.8770 259.2374 15.08825691 78404,6917.924,95.438,540.718,538.86,0.0
54781.0,STARLINK-5443,PAYLOAD,2024-05-19 07:11:06,15.08831391,0.0001348,53.214,109.2557,94.9697,265.1449,0.00045868,7.018e-05,0.0,0 STARLINK-5443,1 54781U 22175Z   24140.29938028  .00007018  00000-0  45868-3 0  9994,2 54781  53.2140 109.2557 0001348  94.9697 265.1449 15.08831391 80582,6917.907,95.438,540.704,538.839,0.0
54781.0,STARLINK-5443,PAYLOAD,2024-05-19 21:29:34,15.08851385,0.0001402,53.2151,106.5772,93.5824,266.5328,0.0011733,0.0001844,0.0,0 STARLINK-5443,1 54781U 22175Z   24140.89554022  .00018440  00000-0  11733-2 0  9992,2 54781  53.2151 106.5772 0001402  93.5824 266.5328 15.08851385 78517,6917.846,95.437,540.68,538.741,0.0
54781.0,STARLINK-5443,PAYLOAD,2024-05-20 07:01:53,15.08865508,0.0001369,53.2149,104.7935,92.9719,267.1429,0.0011416,0.0001794,0.0,0 STARLINK-5443,1 54781U 22175Z   24141.29297457  .00017940  00000-0  11416-2 0  9995,2 54781  53.2149 104.7935 0001369  92.9719 267.1429 15.08865508 80731,6917.802,95.436,540.614,538.72,0.0
54781.0,STARLINK-5443,PAYLOAD,2024-05-21 03:41:53,15.08849801,0.0002742,53.217,100.9179,160.5524,199.5573,8.2339e-05,1.023e-05,0.0,0 STARLINK-5443,1 54781U 22175Z   24142.15408635  .00001023  00000-0  82339-4 0  9992,2 54781  53.2170 100.9179 0002742 160.5524 199.5573 15.08849801 78705,6917.85,95.437,541.612,537.819,0.0
54781.0,STARLINK-5443,PAYLOAD,2024-05-21 06:52:40,15.0884379,0.0001201,53.2153,100.3348,63.9908,296.1208,0.0001432,1.992e-05,0.0,0 STARLINK-5443,1 54781U 22175Z   24142.28657606  .00001992  00000-0  14320-3 0  9999,2 54781  53.2153 100.3348 0001201  63.9908 296.1208 15.08843790 78721,6917.869,95.437,540.565,538.903,0.0
54781.0,STARLINK-5443,PAYLOAD,2024-05-22 03:32:41,15.08838315,0.0001471,53.217,96.4676,74.7586,285.3569,-4.977e-05,-1.08e-05,0.0,0 STARLINK-5443,1 54781U 22175Z   24143.14770217 -.00001080  00000-0 -49770-4 0  9997,2 54781  53.2170  96.4676 0001471  74.7586 285.3569 15.08838315 78851,6917.886,95.438,540.768,538.733,0.0
54781.0,STARLINK-5443,PAYLOAD,2024-05-22 06:43:25,15.08875663,0.0001138,53.2165,95.8707,115.995,244.116,0.00047875,7.347e-05,0.0,0 STARLINK-5443,1 54781U 22175Z   24143.28015961  .00007347  00000-0  47875-3 0  9993,2 54781  53.2165  95.8707 0001138 115.9950 244.1160 15.08875663 78875,6917.771,95.435,540.424,538.849,0.0
54781.0,STARLINK-5443,PAYLOAD,2024-05-22 21:01:55,15.08844592,0.0001214,53.217,93.1956,83.5879,276.5251,0.00027572,4.103e-05,0.0,0 STARLINK-5443,1 54781U 22175Z   24143.87633368  .00004103  00000-0  27572-3 0  9994,2 54781  53.2170  93.1956 0001214  83.5879 276.5251 15.08844592 78960,6917.866,95.437,540.571,538.892,0.0
54781.0,STARLINK-5443,PAYLOAD,2024-05-23 01:48:05,15.08823218,0.0001303,53.2162,92.3011,49.5105,310.6001,-3.7586e-05,-8.86e-06,0.0,0 STARLINK-5443,1 54781U 22175Z   24144.07506551 -.00000886  00000-0 -37586-4 0  9993,2 54781  53.2162  92.3011 0001303  49.5105 310.6001 15.08823218 78995,6917.932,95.439,540.698,538.895,0.0
54781.0,STARLINK-5443,PAYLOAD,2024-05-23 20:52:42,15.0883446,0.0001344,53.2158,88.7306,101.6851,258.4292,-2.0776e-05,-6.18e-06,0.0,0 STARLINK-5443,1 54781U 22175Z   24144.86994178 -.00000618  00000-0 -20776-4 0  9992,2 54781  53.2158  88.7306 0001344 101.6851 258.4292 15.08834460 81276,6917.897,95.438,540.692,538.833,0.0
54781.0,STARLINK-5443,PAYLOAD,2024-05-24 03:14:15,15.08844663,0.0001315,53.2169,87.5479,98.3317,261.7824,0.00014485,2.018e-05,0.0,0 STARLINK-5443,1 54781U 22175Z   24145.13489909  .00002018  00000-0  14485-3 0  9997,2 54781  53.2169  87.5479 0001315  98.3317 261.7824 15.08844663 79151,6917.866,95.437,540.641,538.821,0.0
54781.0,STARLINK-5443,PAYLOAD,2024-05-25 03:05:03,15.08828981,0.000125,53.2174,83.0885,95.7055,264.408,0.00018149,2.601e-05,0.0,0 STARLINK-5443,1 54781U 22175Z   24146.12851010  .00002601  00000-0  18149-3 0  9992,2 54781  53.2174  83.0885 0001250  95.7055 264.4080 15.08828981 79303,6917.914,95.438,540.644,538.914,0.0
54781.0,STARLINK-5443,PAYLOAD,2024-05-25 12:37:21,15.08834336,9.95e-05,53.2183,81.3103,107.6263,252.4838,9.4101e-05,1.21e-05,0.0,0 STARLINK-5443,1 54781U 22175Z   24146.52594685  .00001210  00000-0  94101-4 0  9996,2 54781  53.2183  81.3103 0000995 107.6263 252.4838 15.08834336 81522,6917.898,95.438,540.451,539.074,0.0
54781.0,STARLINK-5443,PAYLOAD,2024-05-26 04:31:13,15.08841581,0.0001352,53.2175,78.3291,105.2748,254.8394,0.00011145,1.486e-05,0.0,0 STARLINK-5443,1 54781U 22175Z   24147.18834697  .00001486  00000-0  11145-3 0  9990,2 54781  53.2175  78.3291 0001352 105.2748 254.8394 15.08841581 79460,6917.876,95.437,540.676,538.805,0.0
54781.0,STARLINK-5443,PAYLOAD,2024-05-26 20:25:04,15.0883565,0.0001409,53.2175,75.356,112.2252,247.889,0.00016208,2.292e-05,0.0,0 STARLINK-5443,1 54781U 22175Z   24147.85075197  .00002292  00000-0  16208-3 0  9997,2 54781  53.2175  75.3560 0001409 112.2252 247.8890 15.08835650 79561,6917.894,95.438,540.733,538.784,0.0
54781.0,STARLINK-5443,PAYLOAD,2024-05-27 12:18:56,15.0883974,0.0001425,53.2177,72.3815,91.4158,268.6997,0.00013886,1.923e-05,0.0,0 STARLINK-5443,1 54781U 22175Z   24148.51315273  .00001923  00000-0  13886-3 0  9992,2 54781  53.2177  72.3815 0001425  91.4158 268.6997 15.08839740 81829,6917.881,95.438,540.732,538.76,0.0
54781.0,STARLINK-5443,PAYLOAD,2024-05-27 18:40:28,15.08843584,0.000138,53.2174,71.1924,98.251,261.8639,0.00011204,1.496e-05,0.0,0 STARLINK-5443,1 54781U 22175Z   24148.77811020  .00001496  00000-0  11204-3 0  9998,2 54781  53.2174  71.1924 0001380  98.2510 261.8639 15.08843584 81864,6917.869,95.437,540.689,538.78,0.0
54781.0,STARLINK-5443,PAYLOAD,2024-05-28 04:12:47,15.08847151,0.0001344,53.218,69.4076,101.7493,258.365,0.00012381,1.683e-05,0.0,0 STARLINK-5443,1 54781U 22175Z   24149.17554704  .00001683  00000-0  12381-3 0  9991,2 54781  53.2180  69.4076 0001344 101.7493 258.3650 15.08847151 79763,6917.859,95.437,540.653,538.794,0.0
54781.0,STARLINK-5443,PAYLOAD,2024-05-28 12:09:42,15.08847314,0.0001306,53.2179,67.921,105.4577,254.6559,0.00012892,1.765e-05,0.0,0 STARLINK-5443,1 54781U 22175Z   24149.50674502  .00001765  00000-0  12892-3 0  9995,2 54781  53.2179  67.9210 0001306 105.4577 254.6559 15.08847314 81970,6917.858,95.437,540.627,538.82,0.0
54781.0,STARLINK-5443,PAYLOAD,2024-05-29 04:03:34,15.08844409,0.0001349,53.2178,64.9471,100.6142,259.5002,0.0001089,1.446e-05,0.0,0 STARLINK-5443,1 54781U 22175Z   24150.16914662  .00001446  00000-0  10890-3 0  9995,2 54781  53.2178  64.9471 0001349 100.6142 259.5002 15.08844409 79917,6917.867,95.437,540.665,538.799,0.0
54781.0,STARLINK-5443,PAYLOAD,2024-05-29 21:32:48,15.0884299,0.0001455,53.2182,61.6753,109.4293,250.6857,5.5146e-05,5.9e-06,0.0,0 STARLINK-5443,1 54781U 22175Z   24150.89778792  .00000590  00000-0  55146-4 0  9990,2 54781  53.2182  61.6753 0001455 109.4293 250.6857 15.08842990 82187,6917.871,95.437,540.743,538.73,0.0
54781.0,STARLINK-5443,PAYLOAD,2024-05-30 03:54:21,15.08843176,0.0001452,53.2182,60.486,109.221,250.8939,5.0052e-05,5.09e-06,0.0,0 STARLINK-5443,1 54781U 22175Z   24151.16274726  .00000509  00000-0  50052-4 0  9990,2 54781  53.2182  60.4860 0001452 109.2210 250.8939 15.08843176 80062,6917.871,95.437,540.74,538.731,0.0
54781.0,STARLINK-5443,PAYLOAD,2024-05-30 21:23:35,15.08842844,0.000151,53.2187,57.2141,110.8635,249.2519,7.6232e-05,9.26e-06,0.0,0 STARLINK-5443,1 54781U 22175Z   24151.89138651  .00000926  00000-0  76232-4 0  9997,2 54781  53.2187  57.2141 0001510 110.8635 249.2519 15.08842844 82336,6917.872,95.437,540.781,538.692,0.0
54781.0,STARLINK-5443,PAYLOAD,2024-05-31 03:45:08,15.08841673,0.0001479,53.2182,56.0251,111.5653,248.5497,6.4387e-05,7.37e-06,0.0,0 STARLINK-5443,1 54781U 22175Z   24152.15634702  .00000737  00000-0  64387-4 0  9993,2 54781  53.2182  56.0251 0001479 111.5653 248.5497 15.08841673 82372,6917.875,95.437,540.763,538.717,0.0
54781.0,STARLINK-5443,PAYLOAD,2024-05-31 22:49:46,15.08842048,0.0001167,53.2191,52.4642,88.7922,271.3203,-2.4135e-05,-6.72e-06,0.0,0 STARLINK-5443,1 54781U 22175Z   24152.95122956 -.00000672  00000-0 -24135-4 0  9991,2 54781  53.2191  52.4642 0001167  88.7922 271.3203 15.08842048 82493,6917.874,95.437,540.546,538.932,0.0
54781.0,STARLINK-5443,PAYLOAD,2024-06-01 03:35:55,15.08843916,0.0001198,53.2187,51.5666,90.8367,269.2762,0.00010191,1.335e-05,0.0,0 STARLINK-5443,1 54781U 22175Z   24153.14994500  .00001335  00000-0  10191-3 0  9996,2 54781  53.2187  51.5666 0001198  90.8367 269.2762 15.08843916 80360,6917.868,95.437,540.562,538.905,0.0
54781.0,STARLINK-5443,PAYLOAD,2024-06-01 09:57:27,15.08847919,0.0001345,53.2204,50.378,91.8261,268.2885,0.00014915,2.087e-05,0.0,0 STARLINK-5443,1 54781U 22175Z   24153.41490049  .00002087  00000-0  14915-3 0  9998,2 54781  53.2204  50.3780 0001345  91.8261 268.2885 15.08847919 82568,6917.856,95.437,540.652,538.791,0.0
